{"type": "FeatureCollection", "features": [ {"type": "Feature", "properties": {"norad_id": 66609, "name": "STARLINK-36034", "group": "last-30-days", "lat": -28.03434809402559, "lon": 59.37707179104373, "alt_km": 415.8991867642162, "timestamp": "2025-12-10T16:57:10.416667+00:00", "meta": {"OBJECT_NAME": "STARLINK-36034", "OBJECT_ID": "2025-270X", "EPOCH": "2025-12-10T12:00:02.998944", "MEAN_MOTION": 15.51050183, "ECCENTRICITY": 0.0002062, "INCLINATION": 42.9998, "RA_OF_ASC_NODE": 205.7351, "ARG_OF_PERICENTER": 254.6408, "MEAN_ANOMALY": 255.4928, "EPHEMERIS_TYPE": 0, "CLASSIFICATION_TYPE": "U", "NORAD_CAT_ID": 66609, "ELEMENT_SET_NO": 999, "REV_AT_EPOCH": 388, "BSTAR": -0.012936, "MEAN_MOTION_DOT": -0.00715186, "MEAN_MOTION_DDOT": 0}, "tle": {"line1": "1 66609U 25270X   25344.50003471 -.00715186  00000+0 -12936-1 0  9992", "line2": "2 66609  42.9998 205.7351 0002062 254.6408 255.4928 15.51050183  3885"}}, "geometry": {"type": "Point", "coordinates": [59.37707179104373, -28.03434809402559]}}, {"type": "Feature", "properties": {"norad_id": 66610, "name": "STARLINK-35680", "group": "last-30-days", "lat": -29.092669544798156, "lon": 61.18595925465885, "alt_km": 415.9956347299394, "timestamp": "2025-12-10T16:57:10.416679+00:00", "meta": {"OBJECT_NAME": "STARLINK-35680", "OBJECT_ID": "2025-270Y", "EPOCH": "2025-12-10T12:00:02.998944", "MEAN_MOTION": 15.5105147, "ECCENTRICITY": 0.0002047, "INCLINATION": 43, "RA_OF_ASC_NODE": 205.7298, "ARG_OF_PERICENTER": 258.0419, "MEAN_ANOMALY": 254.0059, "EPHEMERIS_TYPE": 0, "CLASSIFICATION_TYPE": "U", "NORAD_CAT_ID": 66610, "ELEMENT_SET_NO": 999, "REV_AT_EPOCH": 414, "BSTAR": -0.012925, "MEAN_MOTION_DOT": -0.00714653, "MEAN_MOTION_DDOT": 0}, "tle": {"line1": "1 66610U 25270Y   25344.50003471 -.00714653  00000+0 -12925-1 0  9990", "line2": "2 66610  43.0000 205.7298 0002047 258.0419 254.0059 15.51051470  4146"}}, "geometry": {"type": "Point", "coordinates": [61.18595925465885, -29.092669544798156]}}, {"type": "Feature", "properties": {"norad_id": 66611, "name": "STARLINK-35583", "group": "last-30-days", "lat": -30.128596718409543, "lon": 63.03786439072104, "alt_km": 416.0005006416786, "timestamp": "2025-12-10T16:57:10.416689+00:00", "meta": {"OBJECT_NAME": "STARLINK-35583", "OBJECT_ID": "2025-270Z", "EPOCH": "2025-12-10T12:00:02.998944", "MEAN_MOTION": 15.51044618, "ECCENTRICITY": 0.0002073, "INCLINATION": 42.9997, "RA_OF_ASC_NODE": 205.7249, "ARG_OF_PERICENTER": 255.6086, "MEAN_ANOMALY": 258.3617, "EPHEMERIS_TYPE": 0, "CLASSIFICATION_TYPE": "U", "NORAD_CAT_ID": 66611, "ELEMENT_SET_NO": 999, "REV_AT_EPOCH": 414, "BSTAR": -0.012784, "MEAN_MOTION_DOT": -0.00698482, "MEAN_MOTION_DDOT": 0}, "tle": {"line1": "1 66611U 25270Z   25344.50003471 -.00698482  00000+0 -12784-1 0  9995", "line2": "2 66611  42.9997 205.7249 0002073 255.6086 258.3617 15.51044618  4141"}}, "geometry": {"type": "Point", "coordinates": [63.03786439072104, -30.128596718409543]}}, {"type": "Feature", "properties": {"norad_id": 66612, "name": "STARLINK-36039", "group": "last-30-days", "lat": -31.138024263686386, "lon": 64.9274978758816, "alt_km": 416.03175688271403, "timestamp": "2025-12-10T16:57:10.416698+00:00", "meta": {"OBJECT_NAME": "STARLINK-36039", "OBJECT_ID": "2025-270AA", "EPOCH": "2025-12-10T12:00:02.998944", "MEAN_MOTION": 15.51057021, "ECCENTRICITY": 0.0002082, "INCLINATION": 42.9998, "RA_OF_ASC_NODE": 205.7192, "ARG_OF_PERICENTER": 256.0286, "MEAN_ANOMALY": 259.8559, "EPHEMERIS_TYPE": 0, "CLASSIFICATION_TYPE": "U", "NORAD_CAT_ID": 66612, "ELEMENT_SET_NO": 999, "REV_AT_EPOCH": 404, "BSTAR": -0.013203, "MEAN_MOTION_DOT": -0.00729026, "MEAN_MOTION_DDOT": 0}, "tle": {"line1": "1 66612U 25270AA  25344.50003471 -.00729026  00000+0 -13203-1 0  9992", "line2": "2 66612  42.9998 205.7192 0002082 256.0286 259.8559 15.51057021  4049"}}, "geometry": {"type": "Point", "coordinates": [64.9274978758816, -31.138024263686386]}}, {"type": "Feature", "properties": {"norad_id": 66613, "name": "STARLINK-36037", "group": "last-30-days", "lat": -32.118841830330226, "lon": 66.85801366524528, "alt_km": 416.0625606490794, "timestamp": "2025-12-10T16:57:10.416710+00:00", "meta": {"OBJECT_NAME": "STARLINK-36037", "OBJECT_ID": "2025-270AB", "EPOCH": "2025-12-10T12:00:02.998944", "MEAN_MOTION": 15.51069495, "ECCENTRICITY": 0.0002077, "INCLINATION": 42.9996, "RA_OF_ASC_NODE": 205.7142, "ARG_OF_PERICENTER": 256.6873, "MEAN_ANOMALY": 261.1101, "EPHEMERIS_TYPE": 0, "CLASSIFICATION_TYPE": "U", "NORAD_CAT_ID": 66613, "ELEMENT_SET_NO": 999, "REV_AT_EPOCH": 404, "BSTAR": -0.013493, "MEAN_MOTION_DOT": -0.00744127, "MEAN_MOTION_DDOT": 0}, "tle": {"line1": "1 66613U 25270AB  25344.50003471 -.00744127  00000+0 -13493-1 0  9993", "line2": "2 66613  42.9996 205.7142 0002077 256.6873 261.1101 15.51069495  4042"}}, "geometry": {"type": "Point", "coordinates": [66.85801366524528, -32.118841830330226]}}, {"type": "Feature", "properties": {"norad_id": 66614, "name": "STARLINK-36040", "group": "last-30-days", "lat": -33.98444180490011, "lon": 70.83547460363796, "alt_km": 416.27018052047697, "timestamp": "2025-12-10T16:57:10.416722+00:00", "meta": {"OBJECT_NAME": "STARLINK-36040", "OBJECT_ID": "2025-270AC", "EPOCH": "2025-12-10T12:00:02.998944", "MEAN_MOTION": 15.51053992, "ECCENTRICITY": 0.0001908, "INCLINATION": 42.9996, "RA_OF_ASC_NODE": 205.7052, "ARG_OF_PERICENTER": 258.2626, "MEAN_ANOMALY": 263.3722, "EPHEMERIS_TYPE": 0, "CLASSIFICATION_TYPE": "U", "NORAD_CAT_ID": 66614, "ELEMENT_SET_NO": 999, "REV_AT_EPOCH": 388, "BSTAR": -0.013102, "MEAN_MOTION_DOT": -0.00723763, "MEAN_MOTION_DDOT": 0}, "tle": {"line1": "1 66614U 25270AC  25344.50003471 -.00723763  00000+0 -13102-1 0  9994", "line2": "2 66614  42.9996 205.7052 0001908 258.2626 263.3722 15.51053992  3888"}}, "geometry": {"type": "Point", "coordinates": [70.83547460363796, -33.98444180490011]}}, {"type": "Feature", "properties": {"norad_id": 66615, "name": "STARLINK-35988", "group": "last-30-days", "lat": -33.06603765799896, "lon": 68.82253473184251, "alt_km": 416.27106524452574, "timestamp": "2025-12-10T16:57:10.416732+00:00", "meta": {"OBJECT_NAME": "STARLINK-35988", "OBJECT_ID": "2025-270AD", "EPOCH": "2025-12-10T12:00:02.998944", "MEAN_MOTION": 15.51054303, "ECCENTRICITY": 0.0001787, "INCLINATION": 42.9996, "RA_OF_ASC_NODE": 205.7097, "ARG_OF_PERICENTER": 245.8643, "MEAN_ANOMALY": 273.8551, "EPHEMERIS_TYPE": 0, "CLASSIFICATION_TYPE": "U", "NORAD_CAT_ID": 66615, "ELEMENT_SET_NO": 999, "REV_AT_EPOCH": 388, "BSTAR": -0.013959, "MEAN_MOTION_DOT": -0.00767434, "MEAN_MOTION_DDOT": 0}, "tle": {"line1": "1 66615U 25270AD  25344.50003471 -.00767434  00000+0 -13959-1 0  9998", "line2": "2 66615  42.9996 205.7097 0001787 245.8643 273.8551 15.51054303  3887"}}, "geometry": {"type": "Point", "coordinates": [68.82253473184251, -33.06603765799896]}}, {"type": "Feature", "properties": {"norad_id": 66616, "name": "STARLINK-35391", "group": "last-30-days", "lat": -34.868153432820044, "lon": 72.88883117021791, "alt_km": 416.29611379333255, "timestamp": "2025-12-10T16:57:10.416742+00:00", "meta": {"OBJECT_NAME": "STARLINK-35391", "OBJECT_ID": "2025-270AE", "EPOCH": "2025-12-10T12:00:02.998944", "MEAN_MOTION": 15.51045419, "ECCENTRICITY": 0.0001949, "INCLINATION": 42.9997, "RA_OF_ASC_NODE": 205.7006, "ARG_OF_PERICENTER": 259.5855, "MEAN_ANOMALY": 263.9695, "EPHEMERIS_TYPE": 0, "CLASSIFICATION_TYPE": "U", "NORAD_CAT_ID": 66616, "ELEMENT_SET_NO": 999, "REV_AT_EPOCH": 414, "BSTAR": -0.012848, "MEAN_MOTION_DOT": -0.0070167, "MEAN_MOTION_DDOT": 0}, "tle": {"line1": "1 66616U 25270AE  25344.50003471 -.00701670  00000+0 -12848-1 0  9995", "line2": "2 66616  42.9997 205.7006 0001949 259.5855 263.9695 15.51045419  4143"}}, "geometry": {"type": "Point", "coordinates": [72.88883117021791, -34.868153432820044]}}, {"type": "Feature", "properties": {"norad_id": 66617, "name": "STARLINK-35940", "group": "last-30-days", "lat": -34.10401190383603, "lon": 47.535832810753575, "alt_km": 395.62937713930023, "timestamp": "2025-12-10T16:57:10.416756+00:00", "meta": {"OBJECT_NAME": "STARLINK-35940", "OBJECT_ID": "2025-271A", "EPOCH": "2025-12-10T12:00:02.998944", "MEAN_MOTION": 15.59676104, "ECCENTRICITY": 0.0001174, "INCLINATION": 53.1597, "RA_OF_ASC_NODE": 198.0278, "ARG_OF_PERICENTER": 99.0519, "MEAN_ANOMALY": 46.4772, "EPHEMERIS_TYPE": 0, "CLASSIFICATION_TYPE": "U", "NORAD_CAT_ID": 66617, "ELEMENT_SET_NO": 999, "REV_AT_EPOCH": 388, "BSTAR": -0.027184, "MEAN_MOTION_DOT": -0.01947565, "MEAN_MOTION_DDOT": 0}, "tle": {"line1": "1 66617U 25271A   25344.50003471 -.01947565  00000+0 -27184-1 0  9992", "line2": "2 66617  53.1597 198.0278 0001174  99.0519  46.4772 15.59676104  3882"}}, "geometry": {"type": "Point", "coordinates": [47.535832810753575, -34.10401190383603]}}, {"type": "Feature", "properties": {"norad_id": 66618, "name": "STARLINK-35970", "group": "last-30-days", "lat": -52.45309153194722, "lon": 119.64322046256666, "alt_km": 396.6217223657886, "timestamp": "2025-12-10T16:57:10.416769+00:00", "meta": {"OBJECT_NAME": "STARLINK-35970", "OBJECT_ID": "2025-271B", "EPOCH": "2025-12-10T12:00:02.998944", "MEAN_MOTION": 15.59689571, "ECCENTRICITY": 0.0001084, "INCLINATION": 53.1596, "RA_OF_ASC_NODE": 197.9152, "ARG_OF_PERICENTER": 108.6362, "MEAN_ANOMALY": 90.2155, "EPHEMERIS_TYPE": 0, "CLASSIFICATION_TYPE": "U", "NORAD_CAT_ID": 66618, "ELEMENT_SET_NO": 999, "REV_AT_EPOCH": 388, "BSTAR": -0.027514, "MEAN_MOTION_DOT": -0.01969138, "MEAN_MOTION_DDOT": 0}, "tle": {"line1": "1 66618U 25271B   25344.50003471 -.01969138  00000+0 -27514-1 0  9990", "line2": "2 66618  53.1596 197.9152 0001084 108.6362  90.2155 15.59689571  3888"}}, "geometry": {"type": "Point", "coordinates": [119.64322046256666, -52.45309153194722]}}]}